HAWK-11A                
1 62382U 24247F   26068.51231358  .00009457  00000+0  34106-3 0  9991
2 62382  44.9941 114.3328 0005466 327.3713  32.6832 15.28849427 67741
STARLINK-32725          
1 62505U 25003U   26068.01837789  .00027741  00000+0  10131-2 0  9991
2 62505  42.9993 292.3326 0001186 247.7470 112.3256 15.27605123 66453
